[{"OBJECT_NAME":"STARLINK-3178","OBJECT_ID":"2022-010M","EPOCH":"2026-03-09T20:51:43.173216","MEAN_MOTION":15.08831514,"ECCENTRICITY":0.00012524,"INCLINATION":53.2164,"RA_OF_ASC_NODE":278.3148,"ARG_OF_PERICENTER":85.3546,"MEAN_ANOMALY":274.7589,"EPHEMERIS_TYPE":0,"CLASSIFICATION_TYPE":"U","NORAD_CAT_ID":51467,"ELEMENT_SET_NO":999,"REV_AT_EPOCH":22654,"BSTAR":-0.00012084635,"MEAN_MOTION_DOT":-2.21e-5,"MEAN_MOTION_DDOT":0},{"OBJECT_NAME":"MUSAT-2","OBJECT_ID":"2024-043B","EPOCH":"2026-03-09T22:04:01.255008","MEAN_MOTION":15.07177436,"ECCENTRICITY":0.0006495,"INCLINATION":97.8438,"RA_OF_ASC_NODE":205.4399,"ARG_OF_PERICENTER":314.3478,"MEAN_ANOMALY":45.7216,"EPHEMERIS_TYPE":0,"CLASSIFICATION_TYPE":"U","NORAD_CAT_ID":59099,"ELEMENT_SET_NO":999,"REV_AT_EPOCH":11013,"BSTAR":0.00067214198,"MEAN_MOTION_DOT":0.00010059,"MEAN_MOTION_DDOT":0}]
